start=new Date('2023-07-04T00:00:00.000Z').valueOf();
sats=[{"MEAN_ELEMENT_THEORY":"SGP4","NORAD_CAT_ID":"48673","INCLINATION":"53.0533","OBJECT_NAME":"STARLINK-2711","DECAY_DATE":null,"RA_OF_ASC_NODE":"190.7819","APOAPSIS":"548.147","BSTAR":"-0.00002990300000","TLE_LINE2":"2 48673  53.0533 190.7819 0001358  85.8413 274.2731 15.06402212117042","EPHEMERIS_TYPE":"0","OBJECT_ID":"2021-044AM","CLASSIFICATION_TYPE":"U","EPOCH":"2023-07-03T17:46:10.957440","LAUNCH_DATE":"2021-05-26","PERIAPSIS":"546.266","CENTER_NAME":"EARTH","MEAN_MOTION_DOT":"-0.00000727","OBJECT_TYPE":"PAYLOAD","COUNTRY_CODE":"US","SEMIMAJOR_AXIS":"6925.342","ELEMENT_SET_NO":"999","MEAN_MOTION":"15.06402212","MEAN_MOTION_DDOT":"0.0000000000000","MEAN_ANOMALY":"274.2731","REF_FRAME":"TEME","GP_ID":"234696772","ECCENTRICITY":"0.00013580","TIME_SYSTEM":"UTC","PERIOD":"95.592","ARG_OF_PERICENTER":"85.8413","SITE":"AFETR","FILE":"3948742","TLE_LINE1":"1 48673U 21044AM  23184.74040460 -.00000727  00000-0 -29903-4 0  9997","REV_AT_EPOCH":"11704","RCS_SIZE":"LARGE"},{"NORAD_CAT_ID":"48674","MEAN_ELEMENT_THEORY":"SGP4","INCLINATION":"53.0539","DECAY_DATE":null,"OBJECT_NAME":"STARLINK-2712","RA_OF_ASC_NODE":"194.0667","APOAPSIS":"547.910","BSTAR":"0.00005001000000","TLE_LINE2":"2 48674  53.0539 194.0667 0001005  81.3553 278.7549 15.06399820116935","EPHEMERIS_TYPE":"0","CLASSIFICATION_TYPE":"U","OBJECT_ID":"2021-044AN","EPOCH":"2023-07-03T00:08:34.581984","PERIAPSIS":"546.518","LAUNCH_DATE":"2021-05-26","CENTER_NAME":"EARTH","MEAN_MOTION_DOT":"0.00000464","OBJECT_TYPE":"PAYLOAD","COUNTRY_CODE":"US","ELEMENT_SET_NO":"999","SEMIMAJOR_AXIS":"6925.349","MEAN_MOTION":"15.06399820","MEAN_MOTION_DDOT":"0.0000000000000","MEAN_ANOMALY":"278.7549","REF_FRAME":"TEME","GP_ID":"234681735","ECCENTRICITY":"0.00010050","PERIOD":"95.592","ARG_OF_PERICENTER":"81.3553","TIME_SYSTEM":"UTC","SITE":"AFETR","FILE":"3948028","REV_AT_EPOCH":"11693","TLE_LINE1":"1 48674U 21044AN  23184.00595581  .00000464  00000-0  50010-4 0  9995","RCS_SIZE":"LARGE"},{"APOAPSIS":"547.856","RA_OF_ASC_NODE":"192.3016","BSTAR":"-0.00001337900000","OBJECT_ID":"2021-044AP","CLASSIFICATION_TYPE":"U","TLE_LINE2":"2 48675  53.0538 192.3016 0000929  76.0368 284.0724 15.06400395116938","EPHEMERIS_TYPE":"0","INCLINATION":"53.0538","MEAN_ELEMENT_THEORY":"SGP4","NORAD_CAT_ID":"48675","DECAY_DATE":null,"OBJECT_NAME":"STARLINK-2737","GP_ID":"234689329","REF_FRAME":"TEME","TIME_SYSTEM":"UTC","PERIOD":"95.592","ARG_OF_PERICENTER":"76.0368","SITE":"AFETR","ECCENTRICITY":"0.00009290","FILE":"3948353","REV_AT_EPOCH":"11693","TLE_LINE1":"1 48675U 21044AP  23184.40129397 -.00000481  00000-0 -13379-4 0  9996","RCS_SIZE":"LARGE","PERIAPSIS":"546.569","LAUNCH_DATE":"2021-05-26","MEAN_MOTION_DOT":"-0.00000481","CENTER_NAME":"EARTH","EPOCH":"2023-07-03T09:37:51.799008","COUNTRY_CODE":"US","OBJECT_TYPE":"PAYLOAD","MEAN_MOTION":"15.06400395","ELEMENT_SET_NO":"999","SEMIMAJOR_AXIS":"6925.347","MEAN_ANOMALY":"284.0724","MEAN_MOTION_DDOT":"0.0000000000000"},{"TLE_LINE2":"2 48676  53.0547 190.8339 0000794  62.7166 297.3903 15.06425359117044","EPHEMERIS_TYPE":"0","OBJECT_ID":"2021-044AQ","CLASSIFICATION_TYPE":"U","BSTAR":"-0.00043934000000","RA_OF_ASC_NODE":"190.8339","APOAPSIS":"547.686","OBJECT_NAME":"STARLINK-2746","DECAY_DATE":null,"MEAN_ELEMENT_THEORY":"SGP4","NORAD_CAT_ID":"48676","INCLINATION":"53.0547","TLE_LINE1":"1 48676U 21044AQ  23184.72933327 -.00006823  00000-0 -43934-3 0  9993","REV_AT_EPOCH":"11704","RCS_SIZE":"LARGE","FILE":"3948743","ECCENTRICITY":"0.00007940","PERIOD":"95.591","TIME_SYSTEM":"UTC","ARG_OF_PERICENTER":"62.7166","SITE":"AFETR","REF_FRAME":"TEME","GP_ID":"234697288","MEAN_MOTION_DDOT":"0.0000000000000","MEAN_ANOMALY":"297.3903","SEMIMAJOR_AXIS":"6925.271","ELEMENT_SET_NO":"999","MEAN_MOTION":"15.06425359","OBJECT_TYPE":"PAYLOAD","COUNTRY_CODE":"US","EPOCH":"2023-07-03T17:30:14.394528","LAUNCH_DATE":"2021-05-26","PERIAPSIS":"546.586","MEAN_MOTION_DOT":"-0.00006823","CENTER_NAME":"EARTH"},{"DECAY_DATE":null,"OBJECT_NAME":"STARLINK-2719","INCLINATION":"53.0534","NORAD_CAT_ID":"48677","MEAN_ELEMENT_THEORY":"SGP4","CLASSIFICATION_TYPE":"U","OBJECT_ID":"2021-044AR","EPHEMERIS_TYPE":"0","TLE_LINE2":"2 48677  53.0534 192.3274 0001064  84.9525 275.1585 15.06400681116930","APOAPSIS":"547.948","RA_OF_ASC_NODE":"192.3274","BSTAR":"0.00003382900000","MEAN_MOTION":"15.06400681","ELEMENT_SET_NO":"999","SEMIMAJOR_AXIS":"6925.346","MEAN_ANOMALY":"275.1585","MEAN_MOTION_DDOT":"0.0000000000000","CENTER_NAME":"EARTH","MEAN_MOTION_DOT":"0.00000223","LAUNCH_DATE":"2021-05-26","PERIAPSIS":"546.475","EPOCH":"2023-07-03T09:25:53.139360","COUNTRY_CODE":"US","OBJECT_TYPE":"PAYLOAD","FILE":"3948517","TLE_LINE1":"1 48677U 21044AR  23184.39297615  .00000223  00000-0  33829-4 0  9999","RCS_SIZE":"LARGE","REV_AT_EPOCH":"11693","GP_ID":"234693284","REF_FRAME":"TEME","SITE":"AFETR","PERIOD":"95.592","TIME_SYSTEM":"UTC","ARG_OF_PERICENTER":"84.9525","ECCENTRICITY":"0.00010640"},{"PERIOD":"95.592","ARG_OF_PERICENTER":"87.5870","TIME_SYSTEM":"UTC","SITE":"AFETR","ECCENTRICITY":"0.00010450","GP_ID":"234689428","REF_FRAME":"TEME","TLE_LINE1":"1 48678U 21044AS  23184.45658332 -.00000531  00000-0 -16801-4 0  9999","RCS_SIZE":"LARGE","REV_AT_EPOCH":"11694","FILE":"3948352","COUNTRY_CODE":"US","OBJECT_TYPE":"PAYLOAD","PERIAPSIS":"546.500","LAUNCH_DATE":"2021-05-26","CENTER_NAME":"EARTH","MEAN_MOTION_DOT":"-0.00000531","EPOCH":"2023-07-03T10:57:28.798848","MEAN_ANOMALY":"272.5238","MEAN_MOTION_DDOT":"0.0000000000000","MEAN_MOTION":"15.06396811","ELEMENT_SET_NO":"999","SEMIMAJOR_AXIS":"6925.358","BSTAR":"-0.00001680100000","APOAPSIS":"547.947","RA_OF_ASC_NODE":"192.0542","CLASSIFICATION_TYPE":"U","OBJECT_ID":"2021-044AS","TLE_LINE2":"2 48678  53.0541 192.0542 0001045  87.5870 272.5238 15.06396811116941","EPHEMERIS_TYPE":"0","INCLINATION":"53.0541","NORAD_CAT_ID":"48678","MEAN_ELEMENT_THEORY":"SGP4","DECAY_DATE":null,"OBJECT_NAME":"STARLINK-2615"},{"MEAN_MOTION_DDOT":"0.0000000000000","MEAN_ANOMALY":"272.3334","SEMIMAJOR_AXIS":"6925.354","ELEMENT_SET_NO":"999","MEAN_MOTION":"15.06398179","OBJECT_TYPE":"PAYLOAD","COUNTRY_CODE":"US","EPOCH":"2023-07-03T09:16:38.250912","CENTER_NAME":"EARTH","MEAN_MOTION_DOT":"-0.00000130","LAUNCH_DATE":"2021-05-26","PERIAPSIS":"546.446","TLE_LINE1":"1 48679U 21044AT  23184.38655383 -.00000130  00000-0  10142-4 0  9991","REV_AT_EPOCH":"11693","RCS_SIZE":"LARGE","FILE":"3948356","ECCENTRICITY":"0.00011170","SITE":"AFETR","PERIOD":"95.592","ARG_OF_PERICENTER":"87.7783","TIME_SYSTEM":"UTC","REF_FRAME":"TEME","GP_ID":"234689786","DECAY_DATE":null,"OBJECT_NAME":"STARLINK-2648","MEAN_ELEMENT_THEORY":"SGP4","NORAD_CAT_ID":"48679","INCLINATION":"53.0537","EPHEMERIS_TYPE":"0","TLE_LINE2":"2 48679  53.0537 192.3678 0001117  87.7783 272.3334 15.06398179116938","CLASSIFICATION_TYPE":"U","OBJECT_ID":"2021-044AT","BSTAR":"0.00001014200000","RA_OF_ASC_NODE":"192.3678","APOAPSIS":"547.993"},{"NORAD_CAT_ID":"48680","MEAN_ELEMENT_THEORY":"SGP4","INCLINATION":"53.0541","DECAY_DATE":null,"OBJECT_NAME":"STARLINK-2649","BSTAR":"-0.00001578800000","RA_OF_ASC_NODE":"190.8993","APOAPSIS":"548.089","TLE_LINE2":"2 48680  53.0541 190.8993 0001255  92.4598 267.6535 15.06397913117046","EPHEMERIS_TYPE":"0","CLASSIFICATION_TYPE":"U","OBJECT_ID":"2021-044AU","OBJECT_TYPE":"PAYLOAD","COUNTRY_CODE":"US","EPOCH":"2023-07-03T17:09:01.451232","PERIAPSIS":"546.351","LAUNCH_DATE":"2021-05-26","MEAN_MOTION_DOT":"-0.00000517","CENTER_NAME":"EARTH","MEAN_MOTION_DDOT":"0.0000000000000","MEAN_ANOMALY":"267.6535","SEMIMAJOR_AXIS":"6925.355","ELEMENT_SET_NO":"999","MEAN_MOTION":"15.06397913","ECCENTRICITY":"0.00012550","PERIOD":"95.592","ARG_OF_PERICENTER":"92.4598","TIME_SYSTEM":"UTC","SITE":"AFETR","REF_FRAME":"TEME","GP_ID":"234697391","RCS_SIZE":"LARGE","TLE_LINE1":"1 48680U 21044AU  23184.71460013 -.00000517  00000-0 -15788-4 0  9995","REV_AT_EPOCH":"11704","FILE":"3948752"},{"NORAD_CAT_ID":"48681","MEAN_ELEMENT_THEORY":"SGP4","INCLINATION":"53.0548","DECAY_DATE":null,"OBJECT_NAME":"STARLINK-2725","BSTAR":"0.00001287400000","RA_OF_ASC_NODE":"163.8228","APOAPSIS":"548.110","TLE_LINE2":"2 48681  53.0548 163.8228 0001290  90.5914 269.5223 15.06398962117360","EPHEMERIS_TYPE":"0","OBJECT_ID":"2021-044AV","CLASSIFICATION_TYPE":"U","OBJECT_TYPE":"PAYLOAD","COUNTRY_CODE":"US","EPOCH":"2023-07-03T02:47:52.614816","LAUNCH_DATE":"2021-05-26","PERIAPSIS":"546.323","CENTER_NAME":"EARTH","MEAN_MOTION_DOT":"-0.00000090","MEAN_MOTION_DDOT":"0.0000000000000","MEAN_ANOMALY":"269.5223","SEMIMAJOR_AXIS":"6925.352","ELEMENT_SET_NO":"999","MEAN_MOTION":"15.06398962","ECCENTRICITY":"0.00012900","PERIOD":"95.592","TIME_SYSTEM":"UTC","ARG_OF_PERICENTER":"90.5914","SITE":"AFETR","REF_FRAME":"TEME","GP_ID":"234682851","RCS_SIZE":"LARGE","TLE_LINE1":"1 48681U 21044AV  23184.11658119 -.00000090  00000-0  12874-4 0  9994","REV_AT_EPOCH":"11736","FILE":"3948058"},{"REF_FRAME":"TEME","GP_ID":"234682191","ECCENTRICITY":"0.00012120","SITE":"AFETR","PERIOD":"95.592","ARG_OF_PERICENTER":"86.4728","TIME_SYSTEM":"UTC","FILE":"3948039","RCS_SIZE":"LARGE","TLE_LINE1":"1 48682U 21044AW  23183.91477148 -.00000636  00000-0 -23793-4 0  9992","REV_AT_EPOCH":"11741","EPOCH":"2023-07-02T21:57:16.255872","CENTER_NAME":"EARTH","MEAN_MOTION_DOT":"-0.00000636","PERIAPSIS":"546.383","LAUNCH_DATE":"2021-05-26","OBJECT_TYPE":"PAYLOAD","COUNTRY_CODE":"US","ELEMENT_SET_NO":"999","SEMIMAJOR_AXIS":"6925.357","MEAN_MOTION":"15.06397146","MEAN_MOTION_DDOT":"0.0000000000000","MEAN_ANOMALY":"273.6399","RA_OF_ASC_NODE":"154.6485","APOAPSIS":"548.062","BSTAR":"-0.00002379300000","EPHEMERIS_TYPE":"0","TLE_LINE2":"2 48682  53.0542 154.6485 0001212  86.4728 273.6399 15.06397146117418","CLASSIFICATION_TYPE":"U","OBJECT_ID":"2021-044AW","MEAN_ELEMENT_THEORY":"SGP4","NORAD_CAT_ID":"48682","INCLINATION":"53.0542","OBJECT_NAME":"STARLINK-2743","DECAY_DATE":null}];
